[
    {
        "Altitude(m)": 704394.5591359646,
        "Argument of Periapsis(deg)": 0.007973084830638947,
        "Eccentricity": 0.0,
        "Inclination(deg)": 45.0,
        "Latitude(deg)": -5.9399991235087235,
        "Longitude(deg)": 138.5274522659455,
        "Mean Anomaly(deg)": -8.290348346763507,
        "RAAN(deg)": 244.99247364097928,
        "Satellite Name": "Constellation 1 1099",
        "Satellite Number": 1099,
        "Semi-Major Axis(m)": 7083131.272910544,
        "Time(s)": 133
    },
    {
        "Altitude(m)": 704386.2189726491,
        "Argument of Periapsis(deg)": 0.008033032836884352,
        "Eccentricity": 0.0,
        "Inclination(deg)": 45.0,
        "Latitude(deg)": -5.897028765994491,
        "Longitude(deg)": 138.56664802484477,
        "Mean Anomaly(deg)": -8.229647206513569,
        "RAAN(deg)": 244.99241705181373,
        "Satellite Name": "Constellation 1 1099",
        "Satellite Number": 1099,
        "Semi-Major Axis(m)": 7083131.272910544,
        "Time(s)": 134
    },
    {
        "Altitude(m)": 704377.8977244863,
        "Argument of Periapsis(deg)": 0.008092980843129758,
        "Eccentricity": 0.0,
        "Inclination(deg)": 45.0,
        "Latitude(deg)": -5.8540548945799475,
        "Longitude(deg)": 138.60583720644559,
        "Mean Anomaly(deg)": -8.168946066263631,
        "RAAN(deg)": 244.99236046264818,
        "Satellite Name": "Constellation 1 1099",
        "Satellite Number": 1099,
        "Semi-Major Axis(m)": 7083131.272910544,
        "Time(s)": 135
    },
    {
        "Altitude(m)": 704369.5954103784,
        "Argument of Periapsis(deg)": 0.008152928849375162,
        "Eccentricity": 0.0,
        "Inclination(deg)": 45.0,
        "Latitude(deg)": -5.811077535005164,
        "Longitude(deg)": 138.64501985998578,
        "Mean Anomaly(deg)": -8.108244926013796,
        "RAAN(deg)": 244.99230387348254,
        "Satellite Name": "Constellation 1 1099",
        "Satellite Number": 1099,
        "Semi-Major Axis(m)": 7083131.272910544,
        "Time(s)": 136
    },
    {
        "Altitude(m)": 704361.3120491346,
        "Argument of Periapsis(deg)": 0.008212876855620568,
        "Eccentricity": 0.0,
        "Inclination(deg)": 45.0,
        "Latitude(deg)": -5.768096712997734,
        "Longitude(deg)": 138.68419603468968,
        "Mean Anomaly(deg)": -8.047543785763859,
        "RAAN(deg)": 244.992247284317,
        "Satellite Name": "Constellation 1 1099",
        "Satellite Number": 1099,
        "Semi-Major Axis(m)": 7083131.272910544,
        "Time(s)": 137
    },
    {
        "Altitude(m)": 704353.0476594665,
        "Argument of Periapsis(deg)": 0.008272824861865974,
        "Eccentricity": 0.0,
        "Inclination(deg)": 45.0,
        "Latitude(deg)": -5.72511245427353,
        "Longitude(deg)": 138.7233657797671,
        "Mean Anomaly(deg)": -7.986842645513922,
        "RAAN(deg)": 244.99219069515144,
        "Satellite Name": "Constellation 1 1099",
        "Satellite Number": 1099,
        "Semi-Major Axis(m)": 7083131.272910544,
        "Time(s)": 138
    },
    {
        "Altitude(m)": 704344.8022600147,
        "Argument of Periapsis(deg)": 0.00833277286811138,
        "Eccentricity": 0.0,
        "Inclination(deg)": 45.0,
        "Latitude(deg)": -5.682124784536507,
        "Longitude(deg)": 138.76252914441446,
        "Mean Anomaly(deg)": -7.926141505264137,
        "RAAN(deg)": 244.99213410598588,
        "Satellite Name": "Constellation 1 1099",
        "Satellite Number": 1099,
        "Semi-Major Axis(m)": 7083131.272910544,
        "Time(s)": 139
    },
    {
        "Altitude(m)": 704336.5758693088,
        "Argument of Periapsis(deg)": 0.008392720874356788,
        "Eccentricity": 0.0,
        "Inclination(deg)": 45.0,
        "Latitude(deg)": -5.63913372947833,
        "Longitude(deg)": 138.80168617781476,
        "Mean Anomaly(deg)": -7.865440365014199,
        "RAAN(deg)": 244.99207751682033,
        "Satellite Name": "Constellation 1 1099",
        "Satellite Number": 1099,
        "Semi-Major Axis(m)": 7083131.272910544,
        "Time(s)": 140
    },
    {
        "Altitude(m)": 704328.3685058198,
        "Argument of Periapsis(deg)": 0.008452668880602192,
        "Eccentricity": 0.0,
        "Inclination(deg)": 45.0,
        "Latitude(deg)": -5.5961393147791,
        "Longitude(deg)": 138.84083676103998,
        "Mean Anomaly(deg)": -7.804739224764261,
        "RAAN(deg)": 244.99202092765478,
        "Satellite Name": "Constellation 1 1099",
        "Satellite Number": 1099,
        "Semi-Major Axis(m)": 7083131.272910544,
        "Time(s)": 141
    },
    {
        "Altitude(m)": 704320.1801878954,
        "Argument of Periapsis(deg)": 0.008512616886847598,
        "Eccentricity": 0.0,
        "Inclination(deg)": 45.0,
        "Latitude(deg)": -5.553141566107786,
        "Longitude(deg)": 138.87998127943993,
        "Mean Anomaly(deg)": -7.744038084514376,
        "RAAN(deg)": 244.99196433848914,
        "Satellite Name": "Constellation 1 1099",
        "Satellite Number": 1099,
        "Semi-Major Axis(m)": 7083131.272910544,
        "Time(s)": 142
    },
    {
        "Altitude(m)": 704312.0109338213,
        "Argument of Periapsis(deg)": 0.008572564893093004,
        "Eccentricity": 0.0,
        "Inclination(deg)": 45.0,
        "Latitude(deg)": -5.510140509121097,
        "Longitude(deg)": 138.9191196140601,
        "Mean Anomaly(deg)": -7.683336944264489,
        "RAAN(deg)": 244.9919077493236,
        "Satellite Name": "Constellation 1 1099",
        "Satellite Number": 1099,
        "Semi-Major Axis(m)": 7083131.272910544,
        "Time(s)": 143
    },
    {
        "Altitude(m)": 704303.8607617792,
        "Argument of Periapsis(deg)": 0.008632512899338408,
        "Eccentricity": 0.0,
        "Inclination(deg)": 45.0,
        "Latitude(deg)": -5.467136169464361,
        "Longitude(deg)": 138.9582518140297,
        "Mean Anomaly(deg)": -7.622635804014552,
        "RAAN(deg)": 244.99185116015803,
        "Satellite Name": "Constellation 1 1099",
        "Satellite Number": 1099,
        "Semi-Major Axis(m)": 7083131.272910544,
        "Time(s)": 144
    },
    {
        "Altitude(m)": 704295.7296898686,
        "Argument of Periapsis(deg)": 0.008692460905583814,
        "Eccentricity": 0.0,
        "Inclination(deg)": 45.0,
        "Latitude(deg)": -5.424128572771699,
        "Longitude(deg)": 138.99737792846483,
        "Mean Anomaly(deg)": -7.561934663764614,
        "RAAN(deg)": 244.99179457099248,
        "Satellite Name": "Constellation 1 1099",
        "Satellite Number": 1099,
        "Semi-Major Axis(m)": 7083131.272910544,
        "Time(s)": 145
    },
    {
        "Altitude(m)": 704287.6177360952,
        "Argument of Periapsis(deg)": 0.00875240891182922,
        "Eccentricity": 0.0,
        "Inclination(deg)": 45.0,
        "Latitude(deg)": -5.38111774466599,
        "Longitude(deg)": 139.03649800646835,
        "Mean Anomaly(deg)": -7.501233523514829,
        "RAAN(deg)": 244.99173798182693,
        "Satellite Name": "Constellation 1 1099",
        "Satellite Number": 1099,
        "Semi-Major Axis(m)": 7083131.272910544,
        "Time(s)": 146
    },
    {
        "Altitude(m)": 704279.5249183882,
        "Argument of Periapsis(deg)": 0.008812356918074627,
        "Eccentricity": 0.0,
        "Inclination(deg)": 45.0,
        "Latitude(deg)": -5.33810371075845,
        "Longitude(deg)": 139.0756120971306,
        "Mean Anomaly(deg)": -7.4405323832648405,
        "RAAN(deg)": 244.9916813926613,
        "Satellite Name": "Constellation 1 1099",
        "Satellite Number": 1099,
        "Semi-Major Axis(m)": 7083131.272910544,
        "Time(s)": 147
    },
    {
        "Altitude(m)": 704271.4512545685,
        "Argument of Periapsis(deg)": 0.008872304924320031,
        "Eccentricity": 0.0,
        "Inclination(deg)": 45.0,
        "Latitude(deg)": -5.295086496649521,
        "Longitude(deg)": 139.1147200814317,
        "Mean Anomaly(deg)": -7.3798312430149045,
        "RAAN(deg)": 244.99162480349574,
        "Satellite Name": "Constellation 1 1099",
        "Satellite Number": 1099,
        "Semi-Major Axis(m)": 7083131.272910544,
        "Time(s)": 148
    },
    {
        "Altitude(m)": 704263.3967623779,
        "Argument of Periapsis(deg)": 0.008932252930565437,
        "Eccentricity": 0.0,
        "Inclination(deg)": 45.0,
        "Latitude(deg)": -5.252066127929053,
        "Longitude(deg)": 139.15382234463019,
        "Mean Anomaly(deg)": -7.319130102765068,
        "RAAN(deg)": 244.9915682143302,
        "Satellite Name": "Constellation 1 1099",
        "Satellite Number": 1099,
        "Semi-Major Axis(m)": 7083131.272910544,
        "Time(s)": 149
    },
    {
        "Altitude(m)": 704255.3614594721,
        "Argument of Periapsis(deg)": 0.008992200936810843,
        "Eccentricity": 0.0,
        "Inclination(deg)": 45.0,
        "Latitude(deg)": -5.2090426301752535,
        "Longitude(deg)": 139.19291876768102,
        "Mean Anomaly(deg)": -7.258428962515182,
        "RAAN(deg)": 244.99151162516463,
        "Satellite Name": "Constellation 1 1099",
        "Satellite Number": 1099,
        "Semi-Major Axis(m)": 7083131.272910544,
        "Time(s)": 150
    },
    {
        "Altitude(m)": 704247.3453634095,
        "Argument of Periapsis(deg)": 0.009052148943056249,
        "Eccentricity": 0.0,
        "Inclination(deg)": 45.0,
        "Latitude(deg)": -5.166016028955697,
        "Longitude(deg)": 139.23200939962362,
        "Mean Anomaly(deg)": -7.197727822265244,
        "RAAN(deg)": 244.99145503599908,
        "Satellite Name": "Constellation 1 1099",
        "Satellite Number": 1099,
        "Semi-Major Axis(m)": 7083131.272910544,
        "Time(s)": 151
    }
]